0 THORAD AGENA D DEB
1 04986U 70025HG  13284.16440009  .00000046  00000-0  15933-3 0  3171
2 04986 100.0495 183.2993 0054096 168.6069 359.1531 13.42124980129365
0 THORAD AGENA D DEB
1 04986U 70025HG  13286.24344525  .00000050  00000-0  16680-3 0  3184
2 04986 100.0495 185.3673 0054154 163.5814 324.3696 13.42125159129646
0 THORAD AGENA D DEB
1 04986U 70025HG  13289.23052105  .00000059  00000-0  18291-3 0  3196
2 04986 100.0492 188.3387 0054240 156.3895 356.8456 13.42125736130044
0 THORAD AGENA D DEB
1 04986U 70025HG  13291.24353694  .00000068  00000-0  19871-3 0  3204
2 04986 100.0490 190.3412 0054310 151.5080 003.0542 13.42126225130316
0 THORAD AGENA D DEB
1 04986U 70025HG  13293.24984179  .00000073  00000-0  20704-3 0  3218
2 04986 100.0488 192.3369 0054376 146.6651 336.8181 13.42126760130586
0 THORAD AGENA D DEB
1 04986U 70025HG  13295.69585517  .00000072  00000-0  20580-3 0  3224
2 04986 100.0488 194.7700 0054448 140.7766 275.0890 13.42127380130910
